{
  "type": "FeatureCollection",
  "features": [
    {
      "type": "Feature",
      "properties": {
        "norad_id": 46451,
        "name": "FENGYUN 1C DEB",
        "group": "fengyun-1c-debris",
        "lat": 27.321464727315732,
        "lon": 3.732944537498937,
        "alt_km": 930.8141351964887,
        "timestamp": "2025-12-14T22:38:41.048359+00:00",
        "meta_object_name": "FENGYUN 1C DEB",
        "meta_object_id": "1999-025EZG",
        "meta_epoch": "2025-12-11T06:53:30.054624",
        "meta_mean_motion": 14.20357181,
        "meta_eccentricity": 0.01713544,
        "meta_inclination": 98.1526,
        "meta_ra_of_asc_node": 4.6063,
        "meta_arg_of_pericenter": 190.1419,
        "meta_mean_anomaly": 232.5162,
        "meta_ephemeris_type": 0,
        "meta_classification_type": "U",
        "meta_norad_cat_id": 46451,
        "meta_element_set_no": 999,
        "meta_rev_at_epoch": 56986,
        "meta_bstar": 0.0051476823,
        "meta_mean_motion_dot": 0.00012758,
        "meta_mean_motion_ddot": 0,
        "tle_line1": "1 46451U 99025EZG 25345.28715341  .00012758  00000+0  51477-2 0  9993",
        "tle_line2": "2 46451  98.1526   4.6063 0171354 190.1419 232.5162 14.20357181569865"
      },
      "geometry": {
        "type": "Point",
        "coordinates": [
          3.732944537498937,
          27.321464727315732
        ]
      }
    },
    {
      "type": "Feature",
      "properties": {
        "norad_id": 46468,
        "name": "FENGYUN 1C DEB",
        "group": "fengyun-1c-debris",
        "lat": -56.346785683849376,
        "lon": 90.33157418219986,
        "alt_km": 809.5851601978638,
        "timestamp": "2025-12-14T22:38:41.048370+00:00",
        "meta_object_name": "FENGYUN 1C DEB",
        "meta_object_id": "1999-025EZK",
        "meta_epoch": "2025-12-13T04:55:06.657888",
        "meta_mean_motion": 14.24733341,
        "meta_eccentricity": 0.00460719,
        "meta_inclination": 98.8823,
        "meta_ra_of_asc_node": 74.9879,
        "meta_arg_of_pericenter": 229.1827,
        "meta_mean_anomaly": 160.5992,
        "meta_ephemeris_type": 0,
        "meta_classification_type": "U",
        "meta_norad_cat_id": 46468,
        "meta_element_set_no": 999,
        "meta_rev_at_epoch": 73823,
        "meta_bstar": 0.0028688303,
        "meta_mean_motion_dot": 6.714e-05,
        "meta_mean_motion_ddot": 0,
        "tle_line1": "1 46468U 99025EZK 25347.20493817  .00006714  00000+0  28688-2 0  9999",
        "tle_line2": "2 46468  98.8823  74.9879 0046071 229.1827 160.5992 14.24733341738238"
      },
      "geometry": {
        "type": "Point",
        "coordinates": [
          90.33157418219986,
          -56.346785683849376
        ]
      }
    },
    {
      "type": "Feature",
      "properties": {
        "norad_id": 46986,
        "name": "FENGYUN 1C DEB",
        "group": "fengyun-1c-debris",
        "lat": -59.7577650466927,
        "lon": 27.02396799750262,
        "alt_km": 746.5192321276536,
        "timestamp": "2025-12-14T22:38:41.048380+00:00",
        "meta_object_name": "FENGYUN 1C DEB",
        "meta_object_id": "1999-025EZL",
        "meta_epoch": "2025-12-14T07:59:38.493888",
        "meta_mean_motion": 14.47190205,
        "meta_eccentricity": 0.01046083,
        "meta_inclination": 98.2382,
        "meta_ra_of_asc_node": 12.0408,
        "meta_arg_of_pericenter": 207.0126,
        "meta_mean_anomaly": 152.56,
        "meta_ephemeris_type": 0,
        "meta_classification_type": "U",
        "meta_norad_cat_id": 46986,
        "meta_element_set_no": 999,
        "meta_rev_at_epoch": 63423,
        "meta_bstar": 0.00057219874,
        "meta_mean_motion_dot": 2.19e-05,
        "meta_mean_motion_ddot": 0,
        "tle_line1": "1 46986U 99025EZL 25348.33308442  .00002190  00000+0  57220-3 0  9997",
        "tle_line2": "2 46986  98.2382  12.0408 0104608 207.0126 152.5600 14.47190205634239"
      },
      "geometry": {
        "type": "Point",
        "coordinates": [
          27.02396799750262,
          -59.7577650466927
        ]
      }
    },
    {
      "type": "Feature",
      "properties": {
        "norad_id": 46989,
        "name": "FENGYUN 1C DEB",
        "group": "fengyun-1c-debris",
        "lat": -26.621834043902464,
        "lon": -34.09099540806241,
        "alt_km": 1068.7298890285629,
        "timestamp": "2025-12-14T22:38:41.048390+00:00",
        "meta_object_name": "FENGYUN 1C DEB",
        "meta_object_id": "1999-025EZP",
        "meta_epoch": "2025-12-11T10:11:56.668416",
        "meta_mean_motion": 13.79296249,
        "meta_eccentricity": 0.02400096,
        "meta_inclination": 99.5086,
        "meta_ra_of_asc_node": 147.1941,
        "meta_arg_of_pericenter": 340.6799,
        "meta_mean_anomaly": 46.0855,
        "meta_ephemeris_type": 0,
        "meta_classification_type": "U",
        "meta_norad_cat_id": 46989,
        "meta_element_set_no": 999,
        "meta_rev_at_epoch": 71024,
        "meta_bstar": 0.0061779506,
        "meta_mean_motion_dot": 7.825e-05,
        "meta_mean_motion_ddot": 0,
        "tle_line1": "1 46989U 99025EZP 25345.42496144  .00007825  00000+0  61780-2 0  9999",
        "tle_line2": "2 46989  99.5086 147.1941 0240009 340.6799  46.0855 13.79296249710249"
      },
      "geometry": {
        "type": "Point",
        "coordinates": [
          -34.09099540806241,
          -26.621834043902464
        ]
      }
    },
    {
      "type": "Feature",
      "properties": {
        "norad_id": 46990,
        "name": "FENGYUN 1C DEB",
        "group": "fengyun-1c-debris",
        "lat": -35.12564731390086,
        "lon": -161.2266810478026,
        "alt_km": 806.4688595123253,
        "timestamp": "2025-12-14T22:38:41.048401+00:00",
        "meta_object_name": "FENGYUN 1C DEB",
        "meta_object_id": "1999-025EZQ",
        "meta_epoch": "2025-12-14T08:26:04.168896",
        "meta_mean_motion": 14.23868194,
        "meta_eccentricity": 0.03581981,
        "meta_inclination": 98.2321,
        "meta_ra_of_asc_node": 192.3723,
        "meta_arg_of_pericenter": 55.6747,
        "meta_mean_anomaly": 119.6875,
        "meta_ephemeris_type": 0,
        "meta_classification_type": "U",
        "meta_norad_cat_id": 46990,
        "meta_element_set_no": 999,
        "meta_rev_at_epoch": 8552,
        "meta_bstar": 0.002151092,
        "meta_mean_motion_dot": 9.582e-05,
        "meta_mean_motion_ddot": 0,
        "tle_line1": "1 46990U 99025EZQ 25348.35143714  .00009582  00000+0  21511-2 0  9998",
        "tle_line2": "2 46990  98.2321 192.3723 0358198  55.6747 119.6875 14.23868194 85523"
      },
      "geometry": {
        "type": "Point",
        "coordinates": [
          -161.2266810478026,
          -35.12564731390086
        ]
      }
    },
    {
      "type": "Feature",
      "properties": {
        "norad_id": 46992,
        "name": "FENGYUN 1C DEB",
        "group": "fengyun-1c-debris",
        "lat": -30.58287046923617,
        "lon": 150.32994073351958,
        "alt_km": 867.9499815522413,
        "timestamp": "2025-12-14T22:38:41.048421+00:00",
        "meta_object_name": "FENGYUN 1C DEB",
        "meta_object_id": "1999-025EZS",
        "meta_epoch": "2025-12-13T18:12:56.949408",
        "meta_mean_motion": 14.00699481,
        "meta_eccentricity": 0.00721834,
        "meta_inclination": 98.8985,
        "meta_ra_of_asc_node": 334.4891,
        "meta_arg_of_pericenter": 157.8001,
        "meta_mean_anomaly": 202.6317,
        "meta_ephemeris_type": 0,
        "meta_classification_type": "U",
        "meta_norad_cat_id": 46992,
        "meta_element_set_no": 999,
        "meta_rev_at_epoch": 60971,
        "meta_bstar": 0.00055491814,
        "meta_mean_motion_dot": 8.03e-06,
        "meta_mean_motion_ddot": 0,
        "tle_line1": "1 46992U 99025EZS 25347.75899247  .00000803  00000+0  55492-3 0  9995",
        "tle_line2": "2 46992  98.8985 334.4891 0072183 157.8001 202.6317 14.00699481609710"
      },
      "geometry": {
        "type": "Point",
        "coordinates": [
          150.32994073351958,
          -30.58287046923617
        ]
      }
    },
    {
      "type": "Feature",
      "properties": {
        "norad_id": 46993,
        "name": "FENGYUN 1C DEB",
        "group": "fengyun-1c-debris",
        "lat": 17.935884502516767,
        "lon": -69.96263772475159,
        "alt_km": 1129.305598777053,
        "timestamp": "2025-12-14T22:38:41.048433+00:00",
        "meta_object_name": "FENGYUN 1C DEB",
        "meta_object_id": "1999-025EZT",
        "meta_epoch": "2025-12-09T13:52:54.599808",
        "meta_mean_motion": 13.69143946,
        "meta_eccentricity": 0.0262449,
        "meta_inclination": 98.7232,
        "meta_ra_of_asc_node": 102.3256,
        "meta_arg_of_pericenter": 307.8097,
        "meta_mean_anomaly": 66.0897,
        "meta_ephemeris_type": 0,
        "meta_classification_type": "U",
        "meta_norad_cat_id": 46993,
        "meta_element_set_no": 999,
        "meta_rev_at_epoch": 60214,
        "meta_bstar": 0.00067098,
        "meta_mean_motion_dot": 6.99e-06,
        "meta_mean_motion_ddot": 0,
        "tle_line1": "1 46993U 99025EZT 25343.57840972  .00000699  00000+0  67098-3 0  9991",
        "tle_line2": "2 46993  98.7232 102.3256 0262449 307.8097  66.0897 13.69143946602149"
      },
      "geometry": {
        "type": "Point",
        "coordinates": [
          -69.96263772475159,
          17.935884502516767
        ]
      }
    }
  ]
}